[ {"CCSDS_OMM_VERS": "3.0", "COMMENT": "GENERATED VIA SPACE-TRACK.ORG API", "CREATION_DATE": "2020-01-21T02:51:18", "ORIGINATOR": "18 SPCS", "OBJECT_NAME": "OBJECT F", "OBJECT_ID": "2019-092F", "CENTER_NAME": "EARTH", "REF_FRAME": "TEME", "TIME_SYSTEM": "UTC", "MEAN_ELEMENT_THEORY": "SGP4", "EPOCH": "2020-01-20T11:08:26.346912", "MEAN_MOTION": "15.15210689", "ECCENTRICITY": "0.00148610", "INCLINATION": "97.4636", "RA_OF_ASC_NODE": "206.3157", "ARG_OF_PERICENTER": "146.7710", "MEAN_ANOMALY": "213.4464", "EPHEMERIS_TYPE": "0", "CLASSIFICATION_TYPE": "U", "NORAD_CAT_ID": "44878", "ELEMENT_SET_NO": "999", "REV_AT_EPOCH": "497", "BSTAR": "0.00000000000000", "MEAN_MOTION_DOT": "-0.00000066", "MEAN_MOTION_DDOT": "0.0000000000000", "SEMIMAJOR_AXIS": "6898.476", "PERIOD": "95.036", "APOAPSIS": "530.592", "PERIAPSIS": "510.089", "OBJECT_TYPE": "TBA", "RCS_SIZE": "SMALL", "COUNTRY_CODE": "TBD", "LAUNCH_DATE": "2019-12-18", "SITE": "FRGUI", "DECAY_DATE": null, "FILE": "2687215", "GP_ID": "147062600", "TLE_LINE0": "0 OBJECT F", "TLE_LINE1": "1 44878U 19092F   20020.46419383 -.00000066 +00000-0 +00000-0 0  9997", "TLE_LINE2": "2 44878 097.4636 206.3157 0014861 146.7710 213.4464 15.15210689004970"}, {"CCSDS_OMM_VERS": "3.0", "COMMENT": "GENERATED VIA SPACE-TRACK.ORG API", "CREATION_DATE": "2020-01-21T15:49:41", "ORIGINATOR": "18 SPCS", "OBJECT_NAME": "OBJECT F", "OBJECT_ID": "2019-092F", "CENTER_NAME": "EARTH", "REF_FRAME": "TEME", "TIME_SYSTEM": "UTC", "MEAN_ELEMENT_THEORY": "SGP4", "EPOCH": "2020-01-20T23:49:12.829440", "MEAN_MOTION": "15.15211129", "ECCENTRICITY": "0.00151140", "INCLINATION": "97.4634", "RA_OF_ASC_NODE": "206.8344", "ARG_OF_PERICENTER": "145.1791", "MEAN_ANOMALY": "215.0494", "EPHEMERIS_TYPE": "0", "CLASSIFICATION_TYPE": "U", "NORAD_CAT_ID": "44878", "ELEMENT_SET_NO": "999", "REV_AT_EPOCH": "505", "BSTAR": "0.00000000000000", "MEAN_MOTION_DOT": "-0.00000066", "MEAN_MOTION_DDOT": "0.0000000000000", "SEMIMAJOR_AXIS": "6898.474", "PERIOD": "95.036", "APOAPSIS": "530.766", "PERIAPSIS": "509.913", "OBJECT_TYPE": "TBA", "RCS_SIZE": "SMALL", "COUNTRY_CODE": "TBD", "LAUNCH_DATE": "2019-12-18", "SITE": "FRGUI", "DECAY_DATE": null, "FILE": "2687570", "GP_ID": "147149074", "TLE_LINE0": "0 OBJECT F", "TLE_LINE1": "1 44878U 19092F   20020.99250960 -.00000066 +00000-0 +00000-0 0  9999", "TLE_LINE2": "2 44878 097.4634 206.8344 0015114 145.1791 215.0494 15.15211129005056"}, {"CCSDS_OMM_VERS": "3.0", "COMMENT": "GENERATED VIA SPACE-TRACK.ORG API", "CREATION_DATE": "2020-01-22T02:48:08", "ORIGINATOR": "18 SPCS", "OBJECT_NAME": "OBJECT F", "OBJECT_ID": "2019-092F", "CENTER_NAME": "EARTH", "REF_FRAME": "TEME", "TIME_SYSTEM": "UTC", "MEAN_ELEMENT_THEORY": "SGP4", "EPOCH": "2020-01-21T07:44:41.781984", "MEAN_MOTION": "15.15211487", "ECCENTRICITY": "0.00149730", "INCLINATION": "97.4642", "RA_OF_ASC_NODE": "207.1593", "ARG_OF_PERICENTER": "144.4755", "MEAN_ANOMALY": "215.7529", "EPHEMERIS_TYPE": "0", "CLASSIFICATION_TYPE": "U", "NORAD_CAT_ID": "44878", "ELEMENT_SET_NO": "999", "REV_AT_EPOCH": "510", "BSTAR": "0.00000000000000", "MEAN_MOTION_DOT": "-0.00000066", "MEAN_MOTION_DDOT": "0.0000000000000", "SEMIMAJOR_AXIS": "6898.473", "PERIOD": "95.036", "APOAPSIS": "530.667", "PERIAPSIS": "510.009", "OBJECT_TYPE": "TBA", "RCS_SIZE": "SMALL", "COUNTRY_CODE": "TBD", "LAUNCH_DATE": "2019-12-18", "SITE": "FRGUI", "DECAY_DATE": null, "FILE": "2687780", "GP_ID": "147191422", "TLE_LINE0": "0 OBJECT F", "TLE_LINE1": "1 44878U 19092F   20021.32270581 -.00000066 +00000-0 +00000-0 0  9998", "TLE_LINE2": "2 44878 097.4642 207.1593 0014973 144.4755 215.7529 15.15211487005108"}, {"CCSDS_OMM_VERS": "3.0", "COMMENT": "GENERATED VIA SPACE-TRACK.ORG API", "CREATION_DATE": "2020-01-21T22:20:15", "ORIGINATOR": "18 SPCS", "OBJECT_NAME": "OBJECT F", "OBJECT_ID": "2019-092F", "CENTER_NAME": "EARTH", "REF_FRAME": "TEME", "TIME_SYSTEM": "UTC", "MEAN_ELEMENT_THEORY": "SGP4", "EPOCH": "2020-01-21T12:29:59.124480", "MEAN_MOTION": "15.15211821", "ECCENTRICITY": "0.00149200", "INCLINATION": "97.4641", "RA_OF_ASC_NODE": "207.3535", "ARG_OF_PERICENTER": "144.2431", "MEAN_ANOMALY": "215.9857", "EPHEMERIS_TYPE": "0", "CLASSIFICATION_TYPE": "U", "NORAD_CAT_ID": "44878", "ELEMENT_SET_NO": "999", "REV_AT_EPOCH": "513", "BSTAR": "0.00000000000000", "MEAN_MOTION_DOT": "-0.00000066", "MEAN_MOTION_DDOT": "0.0000000000000", "SEMIMAJOR_AXIS": "6898.472", "PERIOD": "95.036", "APOAPSIS": "530.630", "PERIAPSIS": "510.045", "OBJECT_TYPE": "TBA", "RCS_SIZE": "SMALL", "COUNTRY_CODE": "TBD", "LAUNCH_DATE": "2019-12-18", "SITE": "FRGUI", "DECAY_DATE": null, "FILE": "2687624", "GP_ID": "147168982", "TLE_LINE0": "0 OBJECT F", "TLE_LINE1": "1 44878U 19092F   20021.52082320 -.00000066  00000-0  00000+0 0  9991", "TLE_LINE2": "2 44878  97.4641 207.3535 0014920 144.2431 215.9857 15.15211821  5137"}, {"CCSDS_OMM_VERS": "3.0", "COMMENT": "GENERATED VIA SPACE-TRACK.ORG API", "CREATION_DATE": "2020-01-22T17:41:44", "ORIGINATOR": "18 SPCS", "OBJECT_NAME": "OBJECT F", "OBJECT_ID": "2019-092F", "CENTER_NAME": "EARTH", "REF_FRAME": "TEME", "TIME_SYSTEM": "UTC", "MEAN_ELEMENT_THEORY": "SGP4", "EPOCH": "2020-01-22T10:41:20.279040", "MEAN_MOTION": "15.15212753", "ECCENTRICITY": "0.00156440", "INCLINATION": "97.4640", "RA_OF_ASC_NODE": "208.2616", "ARG_OF_PERICENTER": "141.3121", "MEAN_ANOMALY": "218.9342", "EPHEMERIS_TYPE": "0", "CLASSIFICATION_TYPE": "U", "NORAD_CAT_ID": "44878", "ELEMENT_SET_NO": "999", "REV_AT_EPOCH": "527", "BSTAR": "0.00000000000000", "MEAN_MOTION_DOT": "-0.00000066", "MEAN_MOTION_DDOT": "0.0000000000000", "SEMIMAJOR_AXIS": "6898.469", "PERIOD": "95.036", "APOAPSIS": "531.126", "PERIAPSIS": "509.542", "OBJECT_TYPE": "TBA", "RCS_SIZE": "SMALL", "COUNTRY_CODE": "TBD", "LAUNCH_DATE": "2019-12-18", "SITE": "FRGUI", "DECAY_DATE": null, "FILE": "2688199", "GP_ID": "147239671", "TLE_LINE0": "0 OBJECT F", "TLE_LINE1": "1 44878U 19092F   20022.44537360 -.00000066 +00000-0 +00000-0 0  9993", "TLE_LINE2": "2 44878 097.4640 208.2616 0015644 141.3121 218.9342 15.15212753005276"}, {"CCSDS_OMM_VERS": "3.0", "COMMENT": "GENERATED VIA SPACE-TRACK.ORG API", "CREATION_DATE": "2020-01-23T17:31:24", "ORIGINATOR": "18 SPCS", "OBJECT_NAME": "OPS-SAT", "OBJECT_ID": "2019-092F", "CENTER_NAME": "EARTH", "REF_FRAME": "TEME", "TIME_SYSTEM": "UTC", "MEAN_ELEMENT_THEORY": "SGP4", "EPOCH": "2020-01-23T05:42:29.486592", "MEAN_MOTION": "15.15214135", "ECCENTRICITY": "0.00157240", "INCLINATION": "97.4639", "RA_OF_ASC_NODE": "209.0398", "ARG_OF_PERICENTER": "140.1088", "MEAN_ANOMALY": "220.1342", "EPHEMERIS_TYPE": "0", "CLASSIFICATION_TYPE": "U", "NORAD_CAT_ID": "44878", "ELEMENT_SET_NO": "999", "REV_AT_EPOCH": "539", "BSTAR": "0.00000000000000", "MEAN_MOTION_DOT": "-0.00000066", "MEAN_MOTION_DDOT": "0.0000000000000", "SEMIMAJOR_AXIS": "6898.465", "PERIOD": "95.036", "APOAPSIS": "531.177", "PERIAPSIS": "509.483", "OBJECT_TYPE": "PAYLOAD", "RCS_SIZE": "SMALL", "COUNTRY_CODE": "ESA", "LAUNCH_DATE": "2019-12-18", "SITE": "FRGUI", "DECAY_DATE": null, "FILE": "2688764", "GP_ID": "147272180", "TLE_LINE0": "0 OPS-SAT", "TLE_LINE1": "1 44878U 19092F   20023.23784128 -.00000066 +00000-0 +00000-0 0  9997", "TLE_LINE2": "2 44878 097.4639 209.0398 0015724 140.1088 220.1342 15.15214135005392"}, {"CCSDS_OMM_VERS": "3.0", "COMMENT": "GENERATED VIA SPACE-TRACK.ORG API", "CREATION_DATE": "2020-01-24T06:20:15", "ORIGINATOR": "18 SPCS", "OBJECT_NAME": "OPS-SAT", "OBJECT_ID": "2019-092F", "CENTER_NAME": "EARTH", "REF_FRAME": "TEME", "TIME_SYSTEM": "UTC", "MEAN_ELEMENT_THEORY": "SGP4", "EPOCH": "2020-01-24T00:43:38.911872", "MEAN_MOTION": "15.15216119", "ECCENTRICITY": "0.00153250", "INCLINATION": "97.4649", "RA_OF_ASC_NODE": "209.8178", "ARG_OF_PERICENTER": "137.4856", "MEAN_ANOMALY": "222.7677", "EPHEMERIS_TYPE": "0", "CLASSIFICATION_TYPE": "U", "NORAD_CAT_ID": "44878", "ELEMENT_SET_NO": "999", "REV_AT_EPOCH": "551", "BSTAR": "0.00000000000000", "MEAN_MOTION_DOT": "-0.00000066", "MEAN_MOTION_DDOT": "0.0000000000000", "SEMIMAJOR_AXIS": "6898.459", "PERIOD": "95.035", "APOAPSIS": "530.896", "PERIAPSIS": "509.752", "OBJECT_TYPE": "PAYLOAD", "RCS_SIZE": "SMALL", "COUNTRY_CODE": "ESA", "LAUNCH_DATE": "2019-12-18", "SITE": "FRGUI", "DECAY_DATE": null, "FILE": "2688955", "GP_ID": "147275977", "TLE_LINE0": "0 OPS-SAT", "TLE_LINE1": "1 44878U 19092F   20024.03031148 -.00000066  00000-0  00000+0 0  9992", "TLE_LINE2": "2 44878  97.4649 209.8178 0015325 137.4856 222.7677 15.15216119  5513"}, {"CCSDS_OMM_VERS": "3.0", "COMMENT": "GENERATED VIA SPACE-TRACK.ORG API", "CREATION_DATE": "2020-01-24T17:57:29", "ORIGINATOR": "18 SPCS", "OBJECT_NAME": "OPS-SAT", "OBJECT_ID": "2019-092F", "CENTER_NAME": "EARTH", "REF_FRAME": "TEME", "TIME_SYSTEM": "UTC", "MEAN_ELEMENT_THEORY": "SGP4", "EPOCH": "2020-01-24T07:04:01.895232", "MEAN_MOTION": "15.15217128", "ECCENTRICITY": "0.00152180", "INCLINATION": "97.4652", "RA_OF_ASC_NODE": "210.0777", "ARG_OF_PERICENTER": "135.6316", "MEAN_ANOMALY": "224.6186", "EPHEMERIS_TYPE": "0", "CLASSIFICATION_TYPE": "U", "NORAD_CAT_ID": "44878", "ELEMENT_SET_NO": "999", "REV_AT_EPOCH": "555", "BSTAR": "0.00000000000000", "MEAN_MOTION_DOT": "-0.00000066", "MEAN_MOTION_DDOT": "0.0000000000000", "SEMIMAJOR_AXIS": "6898.456", "PERIOD": "95.035", "APOAPSIS": "530.819", "PERIAPSIS": "509.823", "OBJECT_TYPE": "PAYLOAD", "RCS_SIZE": "SMALL", "COUNTRY_CODE": "ESA", "LAUNCH_DATE": "2019-12-18", "SITE": "FRGUI", "DECAY_DATE": null, "FILE": "2689315", "GP_ID": "147304307", "TLE_LINE0": "0 OPS-SAT", "TLE_LINE1": "1 44878U 19092F   20024.29446638 -.00000066 +00000-0 +00000-0 0  9995", "TLE_LINE2": "2 44878 097.4652 210.0777 0015218 135.6316 224.6186 15.15217128005559"}]